[{"OBJECT_NAME":"STARLINK-6344","OBJECT_ID":"2023-065T","EPOCH":"2026-03-08T09:59:00.813696","MEAN_MOTION":15.02537575,"ECCENTRICITY":0.0001736,"INCLINATION":43.0028,"RA_OF_ASC_NODE":217.2146,"ARG_OF_PERICENTER":270.1952,"MEAN_ANOMALY":89.8691,"EPHEMERIS_TYPE":0,"CLASSIFICATION_TYPE":"U","NORAD_CAT_ID":56520,"ELEMENT_SET_NO":999,"REV_AT_EPOCH":15643,"BSTAR":0.00019132915,"MEAN_MOTION_DOT":2.382e-5,"MEAN_MOTION_DDOT":0},{"OBJECT_NAME":"KORSAT-7","OBJECT_ID":"2023-185B","EPOCH":"2026-03-09T23:44:55.136256","MEAN_MOTION":15.00898391,"ECCENTRICITY":0.00224341,"INCLINATION":97.6243,"RA_OF_ASC_NODE":135.089,"ARG_OF_PERICENTER":307.6562,"MEAN_ANOMALY":52.2627,"EPHEMERIS_TYPE":0,"CLASSIFICATION_TYPE":"U","NORAD_CAT_ID":58463,"ELEMENT_SET_NO":999,"REV_AT_EPOCH":12440,"BSTAR":0.00023536002,"MEAN_MOTION_DOT":2.951e-5,"MEAN_MOTION_DDOT":0}]
